STARLINK-1344           
1 45559U 20025AE  23304.39655538  .00000771  00000+0  70617-4 0  9992
2 45559  53.0545 348.5759 0001666  90.3846 269.7334 15.06407641195702
STARLINK-1346           
1 45560U 20025AF  23304.82605314  .00002422  00000+0  18138-3 0  9993
2 45560  53.0532 337.1229 0001570  85.8861 274.2307 15.06405595195309
STARLINK-1354           
1 45562U 20025AH  23304.40856935  .00014619  00000+0  99800-3 0  9992
2 45562  53.0555 348.5721 0001541  97.3196 262.7968 15.06410309195704
STARLINK-1355           
1 45563U 20025AJ  23304.55601955  .00009272  00000+0  64058-3 0  9995
2 45563  53.0543 347.9114 0001264  86.4325 273.6809 15.06397548195722
STARLINK-1356           
1 45564U 20025AK  23304.81772053  .00011016  00000+0  75716-3 0  9995
2 45564  53.0555 346.7388 0001578  81.0191 279.0976 15.06406466195169
STARLINK-1357           
1 45565U 20025AL  23304.41228275  .00014691  00000+0  10036-2 0  9999
2 45565  53.0549 348.5593 0001620  83.6301 276.4872 15.06382407195704
STARLINK-1358           
1 45566U 20025AM  23304.55970502  .00013123  00000+0  89805-3 0  9992
2 45566  53.0554 347.8948 0001546  74.1240 285.9919 15.06408510195724
STARLINK-1361           
1 45567U 20025AN  23304.43805868  .00010881  00000+0  74794-3 0  9991
2 45567  53.0549 348.4388 0001562  95.0901 265.0267 15.06414464195717
STARLINK-1363           
1 45568U 20025AP  23304.85092045  .00004581  00000+0  32624-3 0  9999
2 45568  53.0545 346.8286 0001416 100.5071 259.6077 15.06396115195160
STARLINK-1366           
1 45569U 20025AQ  23304.83983305  .00004130  00000+0  29607-3 0  9993
2 45569  53.0537 346.6376 0001631  88.0523 272.0652 15.06393963195167
STARLINK-1376           
1 45570U 20025AR  23304.83246714  .00005490  00000+0  38719-3 0  9995
2 45570  53.0560 346.6688 0001778  84.8455 275.2737 15.06398750195170
STARLINK-1261           
1 45571U 20025AS  23304.30736681  .00036490  00000+0  23193-3 0  9999
2 45571  53.0450 306.7404 0001411  69.2206 290.8965 15.76134445196293
STARLINK-1320           
1 45572U 20025AT  23304.80153495  .00003808  00000+0  27437-3 0  9993
2 45572  53.0547 331.5339 0002117  81.1297 278.9932 15.06404403195377
STARLINK-1321           
1 45573U 20025AU  23304.81864376  .00019264  00000+0  13082-2 0  9995
2 45573  53.0552 336.7331 0002110  81.1799 278.9428 15.06411337195300
