[
  {
    "OBJECT_NAME": "STARLINK-1344",
    "OBJECT_ID": "2020-025AE",
    "EPOCH": "2023-10-31T09:31:02.384832",
    "MEAN_MOTION": 15.06407641,
    "ECCENTRICITY": 0.0001666,
    "INCLINATION": 53.0545,
    "RA_OF_ASC_NODE": 348.5759,
    "ARG_OF_PERICENTER": 90.3846,
    "MEAN_ANOMALY": 269.7334,
    "EPHEMERIS_TYPE": 0,
    "CLASSIFICATION_TYPE": "U",
    "NORAD_CAT_ID": 45559,
    "ELEMENT_SET_NO": 999,
    "REV_AT_EPOCH": 19570,
    "BSTAR": 7.0617e-5,
    "MEAN_MOTION_DOT": 7.71e-6,
    "MEAN_MOTION_DDOT": 0
  },
  {
    "OBJECT_NAME": "STARLINK-1346",
    "OBJECT_ID": "2020-025AF",
    "EPOCH": "2023-10-31T19:49:30.991296",
    "MEAN_MOTION": 15.06405595,
    "ECCENTRICITY": 0.000157,
    "INCLINATION": 53.0532,
    "RA_OF_ASC_NODE": 337.1229,
    "ARG_OF_PERICENTER": 85.8861,
    "MEAN_ANOMALY": 274.2307,
    "EPHEMERIS_TYPE": 0,
    "CLASSIFICATION_TYPE": "U",
    "NORAD_CAT_ID": 45560,
    "ELEMENT_SET_NO": 999,
    "REV_AT_EPOCH": 19530,
    "BSTAR": 0.00018138,
    "MEAN_MOTION_DOT": 2.422e-5,
    "MEAN_MOTION_DDOT": 0
  },
  {
    "OBJECT_NAME": "STARLINK-1354",
    "OBJECT_ID": "2020-025AH",
    "EPOCH": "2023-10-31T09:48:20.391840",
    "MEAN_MOTION": 15.06410309,
    "ECCENTRICITY": 0.0001541,
    "INCLINATION": 53.0555,
    "RA_OF_ASC_NODE": 348.5721,
    "ARG_OF_PERICENTER": 97.3196,
    "MEAN_ANOMALY": 262.7968,
    "EPHEMERIS_TYPE": 0,
    "CLASSIFICATION_TYPE": "U",
    "NORAD_CAT_ID": 45562,
    "ELEMENT_SET_NO": 999,
    "REV_AT_EPOCH": 19570,
    "BSTAR": 0.000998,
    "MEAN_MOTION_DOT": 0.00014619,
    "MEAN_MOTION_DDOT": 0
  },
  {
    "OBJECT_NAME": "STARLINK-1355",
    "OBJECT_ID": "2020-025AJ",
    "EPOCH": "2023-10-31T13:20:40.089120",
    "MEAN_MOTION": 15.06397548,
    "ECCENTRICITY": 0.0001264,
    "INCLINATION": 53.0543,
    "RA_OF_ASC_NODE": 347.9114,
    "ARG_OF_PERICENTER": 86.4325,
    "MEAN_ANOMALY": 273.6809,
    "EPHEMERIS_TYPE": 0,
    "CLASSIFICATION_TYPE": "U",
    "NORAD_CAT_ID": 45563,
    "ELEMENT_SET_NO": 999,
    "REV_AT_EPOCH": 19572,
    "BSTAR": 0.00064058,
    "MEAN_MOTION_DOT": 9.272e-5,
    "MEAN_MOTION_DDOT": 0
  },
  {
    "OBJECT_NAME": "STARLINK-1356",
    "OBJECT_ID": "2020-025AK",
    "EPOCH": "2023-10-31T19:37:31.053792",
    "MEAN_MOTION": 15.06406466,
    "ECCENTRICITY": 0.0001578,
    "INCLINATION": 53.0555,
    "RA_OF_ASC_NODE": 346.7388,
    "ARG_OF_PERICENTER": 81.0191,
    "MEAN_ANOMALY": 279.0976,
    "EPHEMERIS_TYPE": 0,
    "CLASSIFICATION_TYPE": "U",
    "NORAD_CAT_ID": 45564,
    "ELEMENT_SET_NO": 999,
    "REV_AT_EPOCH": 19516,
    "BSTAR": 0.00075716,
    "MEAN_MOTION_DOT": 0.00011016,
    "MEAN_MOTION_DDOT": 0
  },
  {
    "OBJECT_NAME": "STARLINK-1357",
    "OBJECT_ID": "2020-025AL",
    "EPOCH": "2023-10-31T09:53:41.229600",
    "MEAN_MOTION": 15.06382407,
    "ECCENTRICITY": 0.000162,
    "INCLINATION": 53.0549,
    "RA_OF_ASC_NODE": 348.5593,
    "ARG_OF_PERICENTER": 83.6301,
    "MEAN_ANOMALY": 276.4872,
    "EPHEMERIS_TYPE": 0,
    "CLASSIFICATION_TYPE": "U",
    "NORAD_CAT_ID": 45565,
    "ELEMENT_SET_NO": 999,
    "REV_AT_EPOCH": 19570,
    "BSTAR": 0.0010036,
    "MEAN_MOTION_DOT": 0.00014691,
    "MEAN_MOTION_DDOT": 0
  },
  {
    "OBJECT_NAME": "STARLINK-1358",
    "OBJECT_ID": "2020-025AM",
    "EPOCH": "2023-10-31T13:25:58.513728",
    "MEAN_MOTION": 15.0640851,
    "ECCENTRICITY": 0.0001546,
    "INCLINATION": 53.0554,
    "RA_OF_ASC_NODE": 347.8948,
    "ARG_OF_PERICENTER": 74.124,
    "MEAN_ANOMALY": 285.9919,
    "EPHEMERIS_TYPE": 0,
    "CLASSIFICATION_TYPE": "U",
    "NORAD_CAT_ID": 45566,
    "ELEMENT_SET_NO": 999,
    "REV_AT_EPOCH": 19572,
    "BSTAR": 0.00089805,
    "MEAN_MOTION_DOT": 0.00013123,
    "MEAN_MOTION_DDOT": 0
  },
  {
    "OBJECT_NAME": "STARLINK-1361",
    "OBJECT_ID": "2020-025AN",
    "EPOCH": "2023-10-31T10:30:48.269952",
    "MEAN_MOTION": 15.06414464,
    "ECCENTRICITY": 0.0001562,
    "INCLINATION": 53.0549,
    "RA_OF_ASC_NODE": 348.4388,
    "ARG_OF_PERICENTER": 95.0901,
    "MEAN_ANOMALY": 265.0267,
    "EPHEMERIS_TYPE": 0,
    "CLASSIFICATION_TYPE": "U",
    "NORAD_CAT_ID": 45567,
    "ELEMENT_SET_NO": 999,
    "REV_AT_EPOCH": 19571,
    "BSTAR": 0.00074794,
    "MEAN_MOTION_DOT": 0.00010881,
    "MEAN_MOTION_DDOT": 0
  },
  {
    "OBJECT_NAME": "STARLINK-1363",
    "OBJECT_ID": "2020-025AP",
    "EPOCH": "2023-10-31T20:25:19.526880",
    "MEAN_MOTION": 15.06396115,
    "ECCENTRICITY": 0.0001416,
    "INCLINATION": 53.0545,
    "RA_OF_ASC_NODE": 346.8286,
    "ARG_OF_PERICENTER": 100.5071,
    "MEAN_ANOMALY": 259.6077,
    "EPHEMERIS_TYPE": 0,
    "CLASSIFICATION_TYPE": "U",
    "NORAD_CAT_ID": 45568,
    "ELEMENT_SET_NO": 999,
    "REV_AT_EPOCH": 19516,
    "BSTAR": 0.00032624,
    "MEAN_MOTION_DOT": 4.581e-5,
    "MEAN_MOTION_DDOT": 0
  },
  {
    "OBJECT_NAME": "STARLINK-1366",
    "OBJECT_ID": "2020-025AQ",
    "EPOCH": "2023-10-31T20:09:21.575520",
    "MEAN_MOTION": 15.06393963,
    "ECCENTRICITY": 0.0001631,
    "INCLINATION": 53.0537,
    "RA_OF_ASC_NODE": 346.6376,
    "ARG_OF_PERICENTER": 88.0523,
    "MEAN_ANOMALY": 272.0652,
    "EPHEMERIS_TYPE": 0,
    "CLASSIFICATION_TYPE": "U",
    "NORAD_CAT_ID": 45569,
    "ELEMENT_SET_NO": 999,
    "REV_AT_EPOCH": 19516,
    "BSTAR": 0.00029607,
    "MEAN_MOTION_DOT": 4.13e-5,
    "MEAN_MOTION_DDOT": 0
  },
  {
    "OBJECT_NAME": "STARLINK-1376",
    "OBJECT_ID": "2020-025AR",
    "EPOCH": "2023-10-31T19:58:45.160896",
    "MEAN_MOTION": 15.0639875,
    "ECCENTRICITY": 0.0001778,
    "INCLINATION": 53.056,
    "RA_OF_ASC_NODE": 346.6688,
    "ARG_OF_PERICENTER": 84.8455,
    "MEAN_ANOMALY": 275.2737,
    "EPHEMERIS_TYPE": 0,
    "CLASSIFICATION_TYPE": "U",
    "NORAD_CAT_ID": 45570,
    "ELEMENT_SET_NO": 999,
    "REV_AT_EPOCH": 19517,
    "BSTAR": 0.00038719,
    "MEAN_MOTION_DOT": 5.49e-5,
    "MEAN_MOTION_DDOT": 0
  },
  {
    "OBJECT_NAME": "STARLINK-1261",
    "OBJECT_ID": "2020-025AS",
    "EPOCH": "2023-10-31T07:22:36.492384",
    "MEAN_MOTION": 15.76134445,
    "ECCENTRICITY": 0.0001411,
    "INCLINATION": 53.045,
    "RA_OF_ASC_NODE": 306.7404,
    "ARG_OF_PERICENTER": 69.2206,
    "MEAN_ANOMALY": 290.8965,
    "EPHEMERIS_TYPE": 0,
    "CLASSIFICATION_TYPE": "U",
    "NORAD_CAT_ID": 45571,
    "ELEMENT_SET_NO": 999,
    "REV_AT_EPOCH": 19629,
    "BSTAR": 0.00023193,
    "MEAN_MOTION_DOT": 0.0003649,
    "MEAN_MOTION_DDOT": 0
  },
  {
    "OBJECT_NAME": "STARLINK-1320",
    "OBJECT_ID": "2020-025AT",
    "EPOCH": "2023-10-31T19:14:12.619680",
    "MEAN_MOTION": 15.06404403,
    "ECCENTRICITY": 0.0002117,
    "INCLINATION": 53.0547,
    "RA_OF_ASC_NODE": 331.5339,
    "ARG_OF_PERICENTER": 81.1297,
    "MEAN_ANOMALY": 278.9932,
    "EPHEMERIS_TYPE": 0,
    "CLASSIFICATION_TYPE": "U",
    "NORAD_CAT_ID": 45572,
    "ELEMENT_SET_NO": 999,
    "REV_AT_EPOCH": 19537,
    "BSTAR": 0.00027437,
    "MEAN_MOTION_DOT": 3.808e-5,
    "MEAN_MOTION_DDOT": 0
  },
  {
    "OBJECT_NAME": "STARLINK-1321",
    "OBJECT_ID": "2020-025AU",
    "EPOCH": "2023-10-31T19:38:50.820864",
    "MEAN_MOTION": 15.06411337,
    "ECCENTRICITY": 0.000211,
    "INCLINATION": 53.0552,
    "RA_OF_ASC_NODE": 336.7331,
    "ARG_OF_PERICENTER": 81.1799,
    "MEAN_ANOMALY": 278.9428,
    "EPHEMERIS_TYPE": 0,
    "CLASSIFICATION_TYPE": "U",
    "NORAD_CAT_ID": 45573,
    "ELEMENT_SET_NO": 999,
    "REV_AT_EPOCH": 19530,
    "BSTAR": 0.0013082,
    "MEAN_MOTION_DOT": 0.00019264,
    "MEAN_MOTION_DDOT": 0
  }
]
